DTUSAT                  
1 27842U 03031C   08237.59173893 -.00000006  00000-0  17470-4 0  3607
2 27842  98.7117 245.9078 0008567 260.6706  99.3495 14.20942949267228
CUTE-1 (CO-55)          
1 27844U 03031E   08237.68635188  .00000038  00000-0  38005-4 0  3802
2 27844  98.7174 245.0056 0008967 281.9697  78.0472 14.20593293267165
QUAKESAT                
1 27845U 03031F   08237.13532656  .00000042  00000-0  39967-4 0  3598
2 27845  98.7224 243.8397 0008501 303.1063  56.9301 14.20212995267000
AAU CUBESAT             
1 27846U 03031G   08237.59145902 -.00000006  00000-0  17556-4 0  3011
2 27846  98.7112 245.9017 0008600 260.8289  99.1878 14.20944075267221
CANX-1                  
1 27847U 03031H   08237.59667001 -.00000014  00000-0  13662-4 0  3159
2 27847  98.7121 245.9032 0008609 258.7669 101.2510 14.20929446267173
CUBESAT XI-IV (CO-57)   
1 27848U 03031J   08236.98924251  .00000030  00000-0  34454-4 0  3301
2 27848  98.7172 243.4015 0009255 289.1341  70.8845 14.20401513267034
UWE-1                   
1 28892U 05043C   08237.97722227  .00000114  00000-0  33580-4 0  1305
2 28892  98.0847 129.9417 0017048 190.7841 169.2995 14.59654445150633
CUBESAT XI-V (CO-58)    
1 28895U 05043F   08237.25786196  .00000105  00000-0  31622-4 0  1028
2 28895  98.0888 129.6301 0017594 192.9562 167.1187 14.59691321150410
NCUBE-2                 
1 28897U 05043H   08237.69418265  .00000101  00000-0  30608-4 0  6335
2 28897  98.0866 129.9802 0016651 193.7499 166.3261 14.59863866142766
CUTE-1.7+APD (CO-56)    
1 28941U 06005C   08238.09716789  .00032949  27339-5  22724-3 0  3184
2 28941  98.1133 358.4042 0157126 149.9808 211.0450 15.59919023140774
GENESAT-1               
1 29655U 06058C   08238.20503132  .00005441  00000-0  69689-4 0  4949
2 29655  40.0268 229.1862 0005357 257.7548 102.2670 15.59616410 96165
CSTB1                   
1 31122U 07012F   08237.16854440  .00000553  00000-0  13192-3 0  4190
2 31122  98.0361 300.2246 0087470 117.5239 243.4892 14.55153890 71965
MAST                    
1 31126U 07012K   08237.18979566  .00000049  00000-0  21561-4 0  4036
2 31126  98.0330 298.8892 0096020 121.0324 240.0360 14.53441827 71893
LIBERTAD-1              
1 31128U 07012M   08237.76605186 -.00000046  00000-0  00000+0 0  4146
2 31128  98.0342 298.2889 0104178 122.5370 238.5941 14.51970405 71882
POLYSAT CP3             
1 31129U 07012N   08238.08064974  .00000102  00000-0  34044-4 0  2338
2 31129  98.0350 298.6446 0103828 121.3898 239.7507 14.52059851 71917
CAPE1                   
1 31130U 07012P   08237.41550815  .00000026  00000-0  16510-4 0  3873
2 31130  98.0341 297.9600 0103648 123.3663 237.7506 14.51987026 71623
POLYSAT CP4             
1 31132U 07012Q   08237.16742541  .00000068  00000-0  25141-4 0  3940
2 31132  98.0358 300.1998 0087340 117.1682 243.8454 14.55137868 71830
NTS (CANX-6)            
1 32784U 08021B   08238.18515510 -.00000085  00000-0 -40122-5 0  1375
2 32784  97.9894 297.8668 0014894 267.1312  92.8195 14.80961314 17612
CUTE-1.7+APD II         
1 32785U 08021C   08238.21880292  .00000186  00000-0  30675-4 0  1395
2 32785  97.9875 297.9527 0013781 273.2690  86.6944 14.81386368 17623
COMPASS-1               
1 32787U 08021E   08238.21438217  .00000345  00000-0  50852-4 0  1298
2 32787  97.9832 297.8904 0014743 274.3954  85.5574 14.81451566 17620
AAUSAT-II               
1 32788U 08021F   08237.86796624  .00000109  00000-0  20762-4 0  1293
2 32788  97.9839 297.5625 0013875 277.3954  82.5682 14.81560124 17575
DELFI-C3                
1 32789U 08021G   08237.47235509  .00000457  00000-0  65167-4 0  1385
2 32789  97.9865 297.1946 0014656 277.3087  82.6465 14.81456404 17511
CANX-2                  
1 32790U 08021H   08237.81375193  .00000300  00000-0  45181-4 0  1245
2 32790  97.9882 297.5447 0013999 274.2448  85.7158 14.81377001 17549
SEEDS II                
1 32791U 08021J   08237.21247130  .00000265  00000-0  40778-4 0  1246
2 32791  97.9870 296.9103 0015116 276.3900  83.5588 14.81305894 17441
PSLV DEB                
1 32797U 08021L   08237.10773675  .00001976  00000-0  25553-3 0   666
2 32797  97.9926 296.9455 0014907 279.1984  80.7530 14.81980644 16143
